{"fetched_at":"2026-07-23T07:05:17.272Z","source":"https://celestrak.org/NORAD/elements/gp.php?GROUP=kuiper&FORMAT=JSON","constellation":"kuiper","records":[{"OBJECT_NAME":"KUIPER-00086","OBJECT_ID":"2025-151S","EPOCH":"2026-07-21T15:22:33.594240","CLASSIFICATION_TYPE":"U","MEAN_MOTION":14.79947147,"ECCENTRICITY":0.00008214,"INCLINATION":51.9007,"RA_OF_ASC_NODE":65.7793,"ARG_OF_PERICENTER":113.4756,"MEAN_ANOMALY":246.6293,"EPHEMERIS_TYPE":0,"NORAD_CAT_ID":64832,"ELEMENT_SET_NO":999,"REV_AT_EPOCH":5517,"BSTAR":0.00040047545,"MEAN_MOTION_DOT":0.00002834,"MEAN_MOTION_DDOT":0},{"OBJECT_NAME":"KUIPER-00087","OBJECT_ID":"2025-151T","EPOCH":"2026-07-22T12:53:51.362592","CLASSIFICATION_TYPE":"U","MEAN_MOTION":14.79947799,"ECCENTRICITY":0.00006805,"INCLINATION":51.8995,"RA_OF_ASC_NODE":44.2755,"ARG_OF_PERICENTER":94.9853,"MEAN_ANOMALY":265.1187,"EPHEMERIS_TYPE":0,"NORAD_CAT_ID":64833,"ELEMENT_SET_NO":999,"REV_AT_EPOCH":5554,"BSTAR":0.00043554316,"MEAN_MOTION_DOT":0.00003102,"MEAN_MOTION_DDOT":0},{"OBJECT_NAME":"KUIPER-00089","OBJECT_ID":"2025-151U","EPOCH":"2026-07-22T20:52:20.100576","CLASSIFICATION_TYPE":"U","MEAN_MOTION":14.79951251,"ECCENTRICITY":0.00007135,"INCLINATION":51.9009,"RA_OF_ASC_NODE":47.8283,"ARG_OF_PERICENTER":116.169,"MEAN_ANOMALY":243.9346,"EPHEMERIS_TYPE":0,"NORAD_CAT_ID":64834,"ELEMENT_SET_NO":999,"REV_AT_EPOCH":5553,"BSTAR":0.00046112585,"MEAN_MOTION_DOT":0.00003297,"MEAN_MOTION_DDOT":0},{"OBJECT_NAME":"KUIPER-00090","OBJECT_ID":"2025-151V","EPOCH":"2026-07-22T12:57:44.445600","CLASSIFICATION_TYPE":"U","MEAN_MOTION":14.79956436,"ECCENTRICITY":0.00007879,"INCLINATION":51.899,"RA_OF_ASC_NODE":41.7902,"ARG_OF_PERICENTER":119.0711,"MEAN_ANOMALY":241.0331,"EPHEMERIS_TYPE":0,"NORAD_CAT_ID":64835,"ELEMENT_SET_NO":999,"REV_AT_EPOCH":5558,"BSTAR":0.00041205191,"MEAN_MOTION_DOT":0.00002923,"MEAN_MOTION_DDOT":0},{"OBJECT_NAME":"KUIPER-00091","OBJECT_ID":"2025-151W","EPOCH":"2026-07-21T19:00:20.582496","CLASSIFICATION_TYPE":"U","MEAN_MOTION":14.79944677,"ECCENTRICITY":0.0000792,"INCLINATION":51.9021,"RA_OF_ASC_NODE":50.1121,"ARG_OF_PERICENTER":113.2586,"MEAN_ANOMALY":246.846,"EPHEMERIS_TYPE":0,"NORAD_CAT_ID":64836,"ELEMENT_SET_NO":999,"REV_AT_EPOCH":5540,"BSTAR":0.00034391239,"MEAN_MOTION_DOT":0.00002402,"MEAN_MOTION_DDOT":0},{"OBJECT_NAME":"KUIPER-00092","OBJECT_ID":"2025-151X","EPOCH":"2026-07-22T07:46:36.562656","CLASSIFICATION_TYPE":"U","MEAN_MOTION":14.79952644,"ECCENTRICITY":0.00007462,"INCLINATION":51.9015,"RA_OF_ASC_NODE":55.2497,"ARG_OF_PERICENTER":115.27,"MEAN_ANOMALY":244.834,"EPHEMERIS_TYPE":0,"NORAD_CAT_ID":64837,"ELEMENT_SET_NO":999,"REV_AT_EPOCH":5659,"BSTAR":0.00036861891,"MEAN_MOTION_DOT":0.00002591,"MEAN_MOTION_DDOT":0},{"OBJECT_NAME":"KUIPER-00093","OBJECT_ID":"2025-151Y","EPOCH":"2026-07-22T20:40:39.265248","CLASSIFICATION_TYPE":"U","MEAN_MOTION":14.7994864,"ECCENTRICITY":0.00006386,"INCLINATION":51.9002,"RA_OF_ASC_NODE":55.3464,"ARG_OF_PERICENTER":117.9361,"MEAN_ANOMALY":242.1666,"EPHEMERIS_TYPE":0,"NORAD_CAT_ID":64838,"ELEMENT_SET_NO":999,"REV_AT_EPOCH":5542,"BSTAR":0.00045667703,"MEAN_MOTION_DOT":0.00003263,"MEAN_MOTION_DDOT":0},{"OBJECT_NAME":"KUIPER-00094","OBJECT_ID":"2025-151Z","EPOCH":"2026-07-22T20:13:27.916608","CLASSIFICATION_TYPE":"U","MEAN_MOTION":14.79955817,"ECCENTRICITY":0.00010399,"INCLINATION":51.9043,"RA_OF_ASC_NODE":10.5252,"ARG_OF_PERICENTER":121.5348,"MEAN_ANOMALY":238.5716,"EPHEMERIS_TYPE":0,"NORAD_CAT_ID":64839,"ELEMENT_SET_NO":999,"REV_AT_EPOCH":5605,"BSTAR":0.00051361988,"MEAN_MOTION_DOT":0.00003698,"MEAN_MOTION_DDOT":0},{"OBJECT_NAME":"KUIPER-00081","OBJECT_ID":"2025-171A","EPOCH":"2026-07-22T21:59:59.519904","CLASSIFICATION_TYPE":"U","MEAN_MOTION":14.79957508,"ECCENTRICITY":0.00002497,"INCLINATION":51.8995,"RA_OF_ASC_NODE":270.1009,"ARG_OF_PERICENTER":78.8056,"MEAN_ANOMALY":281.2934,"EPHEMERIS_TYPE":0,"NORAD_CAT_ID":65132,"ELEMENT_SET_NO":999,"REV_AT_EPOCH":5306,"BSTAR":0.0003988915,"MEAN_MOTION_DOT":0.00002823,"MEAN_MOTION_DDOT":0},{"OBJECT_NAME":"KUIPER-00088","OBJECT_ID":"2025-171B","EPOCH":"2026-07-22T13:26:37.415328","CLASSIFICATION_TYPE":"U","MEAN_MOTION":14.79953632,"ECCENTRICITY":0.00003466,"INCLINATION":51.8997,"RA_OF_ASC_NODE":289.1794,"ARG_OF_PERICENTER":110.7461,"MEAN_ANOMALY":249.3539,"EPHEMERIS_TYPE":0,"NORAD_CAT_ID":65133,"ELEMENT_SET_NO":999,"REV_AT_EPOCH":5276,"BSTAR":0.00039754663,"MEAN_MOTION_DOT":0.00002812,"MEAN_MOTION_DDOT":0},{"OBJECT_NAME":"KUIPER-00095","OBJECT_ID":"2025-171C","EPOCH":"2026-07-22T10:43:11.242560","CLASSIFICATION_TYPE":"U","MEAN_MOTION":14.79954631,"ECCENTRICITY":0.00002329,"INCLINATION":51.8986,"RA_OF_ASC_NODE":269.7273,"ARG_OF_PERICENTER":76.5646,"MEAN_ANOMALY":283.5342,"EPHEMERIS_TYPE":0,"NORAD_CAT_ID":65134,"ELEMENT_SET_NO":999,"REV_AT_EPOCH":5302,"BSTAR":0.00031670382,"MEAN_MOTION_DOT":0.00002195,"MEAN_MOTION_DDOT":0},{"OBJECT_NAME":"KUIPER-00096","OBJECT_ID":"2025-171D","EPOCH":"2026-07-22T17:41:23.030304","CLASSIFICATION_TYPE":"U","MEAN_MOTION":14.7995106,"ECCENTRICITY":0.00002718,"INCLINATION":51.8998,"RA_OF_ASC_NODE":280.8928,"ARG_OF_PERICENTER":100.7381,"MEAN_ANOMALY":259.3612,"EPHEMERIS_TYPE":0,"NORAD_CAT_ID":65135,"ELEMENT_SET_NO":999,"REV_AT_EPOCH":5289,"BSTAR":0.00034721224,"MEAN_MOTION_DOT":0.00002428,"MEAN_MOTION_DDOT":0},{"OBJECT_NAME":"KUIPER-00097","OBJECT_ID":"2025-171E","EPOCH":"2026-07-22T16:00:16.773984","CLASSIFICATION_TYPE":"U","MEAN_MOTION":14.79953684,"ECCENTRICITY":0.00002137,"INCLINATION":51.9018,"RA_OF_ASC_NODE":283.8623,"ARG_OF_PERICENTER":86.1546,"MEAN_ANOMALY":273.944,"EPHEMERIS_TYPE":0,"NORAD_CAT_ID":65136,"ELEMENT_SET_NO":999,"REV_AT_EPOCH":5283,"BSTAR":0.00039761057,"MEAN_MOTION_DOT":0.00002813,"MEAN_MOTION_DDOT":0},{"OBJECT_NAME":"KUIPER-00098","OBJECT_ID":"2025-171F","EPOCH":"2026-07-22T14:19:06.160512","CLASSIFICATION_TYPE":"U","MEAN_MOTION":14.79958566,"ECCENTRICITY":0.00002864,"INCLINATION":51.9007,"RA_OF_ASC_NODE":286.5368,"ARG_OF_PERICENTER":91.2808,"MEAN_ANOMALY":268.8187,"EPHEMERIS_TYPE":0,"NORAD_CAT_ID":65137,"ELEMENT_SET_NO":999,"REV_AT_EPOCH":5214,"BSTAR":0.00040750999,"MEAN_MOTION_DOT":0.00002889,"MEAN_MOTION_DDOT":0},{"OBJECT_NAME":"KUIPER-00099","OBJECT_ID":"2025-171G","EPOCH":"2026-07-21T11:50:09.730752","CLASSIFICATION_TYPE":"U","MEAN_MOTION":14.79927004,"ECCENTRICITY":0.00006078,"INCLINATION":51.9028,"RA_OF_ASC_NODE":281.4219,"ARG_OF_PERICENTER":94.8318,"MEAN_ANOMALY":265.2713,"EPHEMERIS_TYPE":0,"NORAD_CAT_ID":65138,"ELEMENT_SET_NO":999,"REV_AT_EPOCH":5277,"BSTAR":0.00030679072,"MEAN_MOTION_DOT":0.00002118,"MEAN_MOTION_DDOT":0},{"OBJECT_NAME":"KUIPER-00100","OBJECT_ID":"2025-171H","EPOCH":"2026-07-22T13:01:17.144256","CLASSIFICATION_TYPE":"U","MEAN_MOTION":14.79953985,"ECCENTRICITY":0.00003213,"INCLINATION":51.9011,"RA_OF_ASC_NODE":274.2514,"ARG_OF_PERICENTER":87.1744,"MEAN_ANOMALY":272.9255,"EPHEMERIS_TYPE":0,"NORAD_CAT_ID":65139,"ELEMENT_SET_NO":999,"REV_AT_EPOCH":5296,"BSTAR":0.00036720491,"MEAN_MOTION_DOT":0.00002581,"MEAN_MOTION_DDOT":0},{"OBJECT_NAME":"KUIPER-00102","OBJECT_ID":"2025-171J","EPOCH":"2026-07-22T11:20:10.080960","CLASSIFICATION_TYPE":"U","MEAN_MOTION":14.79951396,"ECCENTRICITY":0.00004302,"INCLINATION":51.8976,"RA_OF_ASC_NODE":277.0464,"ARG_OF_PERICENTER":64.0402,"MEAN_ANOMALY":296.0605,"EPHEMERIS_TYPE":0,"NORAD_CAT_ID":65140,"ELEMENT_SET_NO":999,"REV_AT_EPOCH":5291,"BSTAR":0.00040193715,"MEAN_MOTION_DOT":0.00002846,"MEAN_MOTION_DDOT":0},{"OBJECT_NAME":"KUIPER-00103","OBJECT_ID":"2025-171K","EPOCH":"2026-07-22T14:56:03.931872","CLASSIFICATION_TYPE":"U","MEAN_MOTION":14.79959967,"ECCENTRICITY":0.00002812,"INCLINATION":51.8985,"RA_OF_ASC_NODE":293.883,"ARG_OF_PERICENTER":102.641,"MEAN_ANOMALY":257.4584,"EPHEMERIS_TYPE":0,"NORAD_CAT_ID":65141,"ELEMENT_SET_NO":999,"REV_AT_EPOCH":5269,"BSTAR":0.00045019359,"MEAN_MOTION_DOT":0.00003215,"MEAN_MOTION_DDOT":0},{"OBJECT_NAME":"KUIPER-00104","OBJECT_ID":"2025-171L","EPOCH":"2026-07-20T22:44:28.587840","CLASSIFICATION_TYPE":"U","MEAN_MOTION":14.7993796,"ECCENTRICITY":0.00003342,"INCLINATION":51.9028,"RA_OF_ASC_NODE":288.7909,"ARG_OF_PERICENTER":107.7345,"MEAN_ANOMALY":252.3654,"EPHEMERIS_TYPE":0,"NORAD_CAT_ID":65142,"ELEMENT_SET_NO":999,"REV_AT_EPOCH":5262,"BSTAR":0.00025774548,"MEAN_MOTION_DOT":0.00001745,"MEAN_MOTION_DDOT":0},{"OBJECT_NAME":"KUIPER-00105","OBJECT_ID":"2025-171M","EPOCH":"2026-07-22T15:52:28.460928","CLASSIFICATION_TYPE":"U","MEAN_MOTION":14.79937114,"ECCENTRICITY":0.0000263,"INCLINATION":51.9018,"RA_OF_ASC_NODE":288.8121,"ARG_OF_PERICENTER":109.8932,"MEAN_ANOMALY":250.2059,"EPHEMERIS_TYPE":0,"NORAD_CAT_ID":65143,"ELEMENT_SET_NO":999,"REV_AT_EPOCH":5277,"BSTAR":-0.00010130794,"MEAN_MOTION_DOT":-0.00000993,"MEAN_MOTION_DDOT":0},{"OBJECT_NAME":"KUIPER-00106","OBJECT_ID":"2025-171N","EPOCH":"2026-07-22T21:53:43.637568","CLASSIFICATION_TYPE":"U","MEAN_MOTION":14.79947041,"ECCENTRICITY":0.00002022,"INCLINATION":51.9012,"RA_OF_ASC_NODE":266.4657,"ARG_OF_PERICENTER":108.9927,"MEAN_ANOMALY":251.1057,"EPHEMERIS_TYPE":0,"NORAD_CAT_ID":65144,"ELEMENT_SET_NO":999,"REV_AT_EPOCH":5311,"BSTAR":0.00036174632,"MEAN_MOTION_DOT":0.00002539,"MEAN_MOTION_DDOT":0},{"OBJECT_NAME":"KUIPER-00107","OBJECT_ID":"2025-171P","EPOCH":"2026-07-22T21:11:25.177056","CLASSIFICATION_TYPE":"U","MEAN_MOTION":14.79947292,"ECCENTRICITY":0.00003055,"INCLINATION":51.9008,"RA_OF_ASC_NODE":270.2741,"ARG_OF_PERICENTER":94.4011,"MEAN_ANOMALY":265.6987,"EPHEMERIS_TYPE":0,"NORAD_CAT_ID":65145,"ELEMENT_SET_NO":999,"REV_AT_EPOCH":5305,"BSTAR":0.00032338057,"MEAN_MOTION_DOT":0.00002246,"MEAN_MOTION_DDOT":0},{"OBJECT_NAME":"KUIPER-00108","OBJECT_ID":"2025-171Q","EPOCH":"2026-07-21T14:53:01.671936","CLASSIFICATION_TYPE":"U","MEAN_MOTION":14.79942969,"ECCENTRICITY":0.00003346,"INCLINATION":51.9033,"RA_OF_ASC_NODE":288.3961,"ARG_OF_PERICENTER":103.7444,"MEAN_ANOMALY":256.3556,"EPHEMERIS_TYPE":0,"NORAD_CAT_ID":65146,"ELEMENT_SET_NO":999,"REV_AT_EPOCH":5269,"BSTAR":0.00030904309,"MEAN_MOTION_DOT":0.00002136,"MEAN_MOTION_DDOT":0}]}
